{
  "type": "FeatureCollection",
  "features": [
    {
      "type": "Feature",
      "properties": {
        "norad_id": 67040,
        "name": "STARLINK-35786",
        "group": "last-30-days",
        "lat": 25.562706636409892,
        "lon": 153.37926025251076,
        "alt_km": 319.44986093594343,
        "timestamp": "2025-12-22T11:33:19.157883+00:00",
        "meta_object_name": "STARLINK-35786",
        "meta_object_id": "2025-294L",
        "meta_epoch": "2025-12-22T04:00:01.998720",
        "meta_mean_motion": 15.84024578,
        "meta_eccentricity": 0.0001542,
        "meta_inclination": 43.0003,
        "meta_ra_of_asc_node": 124.4287,
        "meta_arg_of_pericenter": 273.5856,
        "meta_mean_anomaly": 129.2358,
        "meta_ephemeris_type": 0,
        "meta_classification_type": "U",
        "meta_norad_cat_id": 67040,
        "meta_element_set_no": 999,
        "meta_rev_at_epoch": 163,
        "meta_bstar": -0.00939,
        "meta_mean_motion_dot": -0.0190083,
        "meta_mean_motion_ddot": 0,
        "tle_line1": "1 67040U 25294L   25356.16668980 -.01900830  00000+0 -93900-2 0  9999",
        "tle_line2": "2 67040  43.0003 124.4287 0001542 273.5856 129.2358 15.84024578  1639"
      },
      "geometry": {
        "type": "Point",
        "coordinates": [
          153.37926025251076,
          25.562706636409892
        ]
      }
    },
    {
      "type": "Feature",
      "properties": {
        "norad_id": 67041,
        "name": "STARLINK-35765",
        "group": "last-30-days",
        "lat": 27.946942959319,
        "lon": 157.1876670671004,
        "alt_km": 319.0643016630647,
        "timestamp": "2025-12-22T11:33:19.157893+00:00",
        "meta_object_name": "STARLINK-35765",
        "meta_object_id": "2025-294M",
        "meta_epoch": "2025-12-22T04:00:01.998720",
        "meta_mean_motion": 15.84036821,
        "meta_eccentricity": 0.0001564,
        "meta_inclination": 43.0003,
        "meta_ra_of_asc_node": 124.4181,
        "meta_arg_of_pericenter": 278.4329,
        "meta_mean_anomaly": 128.5409,
        "meta_ephemeris_type": 0,
        "meta_classification_type": "U",
        "meta_norad_cat_id": 67041,
        "meta_element_set_no": 999,
        "meta_rev_at_epoch": 163,
        "meta_bstar": -0.0095179,
        "meta_mean_motion_dot": -0.01924355,
        "meta_mean_motion_ddot": 0,
        "tle_line1": "1 67041U 25294M   25356.16668980 -.01924355  00000+0 -95179-2 0  9998",
        "tle_line2": "2 67041  43.0003 124.4181 0001564 278.4329 128.5409 15.84036821  1639"
      },
      "geometry": {
        "type": "Point",
        "coordinates": [
          157.1876670671004,
          27.946942959319
        ]
      }
    },
    {
      "type": "Feature",
      "properties": {
        "norad_id": 67042,
        "name": "STARLINK-35773",
        "group": "last-30-days",
        "lat": 29.176615856163817,
        "lon": 159.29080870161852,
        "alt_km": 318.9419968252714,
        "timestamp": "2025-12-22T11:33:19.157902+00:00",
        "meta_object_name": "STARLINK-35773",
        "meta_object_id": "2025-294N",
        "meta_epoch": "2025-12-22T04:00:01.998720",
        "meta_mean_motion": 15.84006527,
        "meta_eccentricity": 0.0001606,
        "meta_inclination": 43.0001,
        "meta_ra_of_asc_node": 124.4126,
        "meta_arg_of_pericenter": 279.4047,
        "meta_mean_anomaly": 129.815,
        "meta_ephemeris_type": 0,
        "meta_classification_type": "U",
        "meta_norad_cat_id": 67042,
        "meta_element_set_no": 999,
        "meta_rev_at_epoch": 182,
        "meta_bstar": -0.0094188,
        "meta_mean_motion_dot": -0.0190452,
        "meta_mean_motion_ddot": 0,
        "tle_line1": "1 67042U 25294N   25356.16668980 -.01904520  00000+0 -94188-2 0  9990",
        "tle_line2": "2 67042  43.0001 124.4126 0001606 279.4047 129.8150 15.84006527  1820"
      },
      "geometry": {
        "type": "Point",
        "coordinates": [
          159.29080870161852,
          29.176615856163817
        ]
      }
    },
    {
      "type": "Feature",
      "properties": {
        "norad_id": 67043,
        "name": "STARLINK-35901",
        "group": "last-30-days",
        "lat": 30.36089405456772,
        "lon": 161.42227703243537,
        "alt_km": 318.8934134981555,
        "timestamp": "2025-12-22T11:33:19.157912+00:00",
        "meta_object_name": "STARLINK-35901",
        "meta_object_id": "2025-294P",
        "meta_epoch": "2025-12-22T04:00:01.998720",
        "meta_mean_motion": 15.83999106,
        "meta_eccentricity": 0.0001597,
        "meta_inclination": 43.0003,
        "meta_ra_of_asc_node": 124.4071,
        "meta_arg_of_pericenter": 275.49,
        "meta_mean_anomaly": 135.9393,
        "meta_ephemeris_type": 0,
        "meta_classification_type": "U",
        "meta_norad_cat_id": 67043,
        "meta_element_set_no": 999,
        "meta_rev_at_epoch": 182,
        "meta_bstar": -0.0094385,
        "meta_mean_motion_dot": -0.01907383,
        "meta_mean_motion_ddot": 0,
        "tle_line1": "1 67043U 25294P   25356.16668980 -.01907383  00000+0 -94385-2 0  9990",
        "tle_line2": "2 67043  43.0003 124.4071 0001597 275.4900 135.9393 15.83999106  1825"
      },
      "geometry": {
        "type": "Point",
        "coordinates": [
          161.42227703243537,
          30.36089405456772
        ]
      }
    },
    {
      "type": "Feature",
      "properties": {
        "norad_id": 67044,
        "name": "STARLINK-35884",
        "group": "last-30-days",
        "lat": 31.479360653242658,
        "lon": 163.54609694654474,
        "alt_km": 318.7748401880208,
        "timestamp": "2025-12-22T11:33:19.157928+00:00",
        "meta_object_name": "STARLINK-35884",
        "meta_object_id": "2025-294Q",
        "meta_epoch": "2025-12-22T04:00:01.998720",
        "meta_mean_motion": 15.84005937,
        "meta_eccentricity": 0.0001658,
        "meta_inclination": 43.0005,
        "meta_ra_of_asc_node": 124.4016,
        "meta_arg_of_pericenter": 276.4097,
        "meta_mean_anomaly": 137.158,
        "meta_ephemeris_type": 0,
        "meta_classification_type": "U",
        "meta_norad_cat_id": 67044,
        "meta_element_set_no": 999,
        "meta_rev_at_epoch": 182,
        "meta_bstar": -0.0095239,
        "meta_mean_motion_dot": -0.01923004,
        "meta_mean_motion_ddot": 0,
        "tle_line1": "1 67044U 25294Q   25356.16668980 -.01923004  00000+0 -95239-2 0  9998",
        "tle_line2": "2 67044  43.0005 124.4016 0001658 276.4097 137.1580 15.84005937  1826"
      },
      "geometry": {
        "type": "Point",
        "coordinates": [
          163.54609694654474,
          31.479360653242658
        ]
      }
    },
    {
      "type": "Feature",
      "properties": {
        "norad_id": 67045,
        "name": "STARLINK-35891",
        "group": "last-30-days",
        "lat": 32.743883075898545,
        "lon": 166.10016805958784,
        "alt_km": 318.63255967348323,
        "timestamp": "2025-12-22T11:33:19.157940+00:00",
        "meta_object_name": "STARLINK-35891",
        "meta_object_id": "2025-294R",
        "meta_epoch": "2025-12-22T04:00:01.998720",
        "meta_mean_motion": 15.83984198,
        "meta_eccentricity": 0.0001431,
        "meta_inclination": 43.0003,
        "meta_ra_of_asc_node": 124.3951,
        "meta_arg_of_pericenter": 272.3019,
        "meta_mean_anomaly": 143.8016,
        "meta_ephemeris_type": 0,
        "meta_classification_type": "U",
        "meta_norad_cat_id": 67045,
        "meta_element_set_no": 999,
        "meta_rev_at_epoch": 174,
        "meta_bstar": -0.0095323,
        "meta_mean_motion_dot": -0.01922482,
        "meta_mean_motion_ddot": 0,
        "tle_line1": "1 67045U 25294R   25356.16668980 -.01922482  00000+0 -95323-2 0  9992",
        "tle_line2": "2 67045  43.0003 124.3951 0001431 272.3019 143.8016 15.83984198  1743"
      },
      "geometry": {
        "type": "Point",
        "coordinates": [
          166.10016805958784,
          32.743883075898545
        ]
      }
    },
    {
      "type": "Feature",
      "properties": {
        "norad_id": 67046,
        "name": "STARLINK-35721",
        "group": "last-30-days",
        "lat": 33.853597547264236,
        "lon": 168.49848494352895,
        "alt_km": 318.51656247994015,
        "timestamp": "2025-12-22T11:33:19.157950+00:00",
        "meta_object_name": "STARLINK-35721",
        "meta_object_id": "2025-294S",
        "meta_epoch": "2025-12-22T04:00:01.998720",
        "meta_mean_motion": 15.83968255,
        "meta_eccentricity": 0.0001342,
        "meta_inclination": 43.0005,
        "meta_ra_of_asc_node": 124.3893,
        "meta_arg_of_pericenter": 270.1903,
        "meta_mean_anomaly": 148.2269,
        "meta_ephemeris_type": 0,
        "meta_classification_type": "U",
        "meta_norad_cat_id": 67046,
        "meta_element_set_no": 999,
        "meta_rev_at_epoch": 182,
        "meta_bstar": -0.0095529,
        "meta_mean_motion_dot": -0.01924705,
        "meta_mean_motion_ddot": 0,
        "tle_line1": "1 67046U 25294S   25356.16668980 -.01924705  00000+0 -95529-2 0  9991",
        "tle_line2": "2 67046  43.0005 124.3893 0001342 270.1903 148.2269 15.83968255  1824"
      },
      "geometry": {
        "type": "Point",
        "coordinates": [
          168.49848494352895,
          33.853597547264236
        ]
      }
    }
  ]
}